{
  "type": "FeatureCollection",
  "features": [
    {
      "type": "Feature",
      "properties": {
        "norad_id": 32275,
        "name": "COSMOS 2433 (720)",
        "group": "glo-ops",
        "lat": -1.692748011481504,
        "lon": 142.63463983013918,
        "alt_km": 19126.790412540817,
        "timestamp": "2025-12-22T05:49:03.760196+00:00",
        "meta_object_name": "COSMOS 2433 (720)",
        "meta_object_id": "2007-052A",
        "meta_epoch": "2025-12-21T01:36:08.610912",
        "meta_mean_motion": 2.13104226,
        "meta_eccentricity": 0.00051868,
        "meta_inclination": 65.6786,
        "meta_ra_of_asc_node": 321.9257,
        "meta_arg_of_pericenter": 255.4545,
        "meta_mean_anomaly": 104.4812,
        "meta_ephemeris_type": 0,
        "meta_classification_type": "U",
        "meta_norad_cat_id": 32275,
        "meta_element_set_no": 999,
        "meta_rev_at_epoch": 14126,
        "meta_bstar": 0,
        "meta_mean_motion_dot": -4.8e-07,
        "meta_mean_motion_ddot": 0,
        "tle_line1": "1 32275U 07052A   25355.06676633 -.00000048  00000+0  00000+0 0  9991",
        "tle_line2": "2 32275  65.6786 321.9257 0005186 255.4545 104.4812  2.13104226141263"
      },
      "geometry": {
        "type": "Point",
        "coordinates": [
          142.63463983013918,
          -1.692748011481504
        ]
      }
    },
    {
      "type": "Feature",
      "properties": {
        "norad_id": 32276,
        "name": "COSMOS 2432 (719)",
        "group": "glo-ops",
        "lat": 47.217922207642246,
        "lon": 112.7787421042619,
        "alt_km": 19153.087130552885,
        "timestamp": "2025-12-22T05:49:03.760220+00:00",
        "meta_object_name": "COSMOS 2432 (719)",
        "meta_object_id": "2007-052B",
        "meta_epoch": "2025-12-21T05:56:02.961600",
        "meta_mean_motion": 2.13103424,
        "meta_eccentricity": 0.00113369,
        "meta_inclination": 65.6945,
        "meta_ra_of_asc_node": 322.044,
        "meta_arg_of_pericenter": 314.296,
        "meta_mean_anomaly": 128.5462,
        "meta_ephemeris_type": 0,
        "meta_classification_type": "U",
        "meta_norad_cat_id": 32276,
        "meta_element_set_no": 999,
        "meta_rev_at_epoch": 14129,
        "meta_bstar": 0,
        "meta_mean_motion_dot": -4.7e-07,
        "meta_mean_motion_ddot": 0,
        "tle_line1": "1 32276U 07052B   25355.24725650 -.00000047  00000+0  00000+0 0  9995",
        "tle_line2": "2 32276  65.6945 322.0440 0011336 314.2960 128.5462  2.13103424141296"
      },
      "geometry": {
        "type": "Point",
        "coordinates": [
          112.7787421042619,
          47.217922207642246
        ]
      }
    },
    {
      "type": "Feature",
      "properties": {
        "norad_id": 32393,
        "name": "COSMOS 2434 (721)",
        "group": "glo-ops",
        "lat": 59.18153240276011,
        "lon": -108.29224090136903,
        "alt_km": 19111.11922803931,
        "timestamp": "2025-12-22T05:49:03.760235+00:00",
        "meta_object_name": "COSMOS 2434 (721)",
        "meta_object_id": "2007-065A",
        "meta_epoch": "2025-12-21T09:39:23.764896",
        "meta_mean_motion": 2.13101489,
        "meta_eccentricity": 0.00048181,
        "meta_inclination": 64.3157,
        "meta_ra_of_asc_node": 197.9109,
        "meta_arg_of_pericenter": 72.3225,
        "meta_mean_anomaly": 75.6648,
        "meta_ephemeris_type": 0,
        "meta_classification_type": "U",
        "meta_norad_cat_id": 32393,
        "meta_element_set_no": 999,
        "meta_rev_at_epoch": 13998,
        "meta_bstar": 0,
        "meta_mean_motion_dot": 9.7e-07,
        "meta_mean_motion_ddot": 0,
        "tle_line1": "1 32393U 07065A   25355.40235839  .00000097  00000+0  00000+0 0  9996",
        "tle_line2": "2 32393  64.3157 197.9109 0004818  72.3225  75.6648  2.13101489139981"
      },
      "geometry": {
        "type": "Point",
        "coordinates": [
          -108.29224090136903,
          59.18153240276011
        ]
      }
    },
    {
      "type": "Feature",
      "properties": {
        "norad_id": 32395,
        "name": "COSMOS 2436 (723)",
        "group": "glo-ops",
        "lat": -22.750308868907556,
        "lon": 29.602546328081857,
        "alt_km": 19177.174668604453,
        "timestamp": "2025-12-22T05:49:03.760249+00:00",
        "meta_object_name": "COSMOS 2436 (723)",
        "meta_object_id": "2007-065C",
        "meta_epoch": "2025-12-21T12:09:56.983392",
        "meta_mean_motion": 2.13100253,
        "meta_eccentricity": 0.00178045,
        "meta_inclination": 64.3244,
        "meta_ra_of_asc_node": 197.9777,
        "meta_arg_of_pericenter": 10.1556,
        "meta_mean_anomaly": 351.0795,
        "meta_ephemeris_type": 0,
        "meta_classification_type": "U",
        "meta_norad_cat_id": 32395,
        "meta_element_set_no": 999,
        "meta_rev_at_epoch": 13994,
        "meta_bstar": 0,
        "meta_mean_motion_dot": 9.6e-07,
        "meta_mean_motion_ddot": 0,
        "tle_line1": "1 32395U 07065C   25355.50690953  .00000096  00000+0  00000+0 0  9990",
        "tle_line2": "2 32395  64.3244 197.9777 0017804  10.1556 351.0795  2.13100253139945"
      },
      "geometry": {
        "type": "Point",
        "coordinates": [
          29.602546328081857,
          -22.750308868907556
        ]
      }
    },
    {
      "type": "Feature",
      "properties": {
        "norad_id": 36111,
        "name": "COSMOS 2456 (730)",
        "group": "glo-ops",
        "lat": -43.569323902058166,
        "lon": -76.5463804525963,
        "alt_km": 19131.824616687238,
        "timestamp": "2025-12-22T05:49:03.760262+00:00",
        "meta_object_name": "COSMOS 2456 (730)",
        "meta_object_id": "2009-070A",
        "meta_epoch": "2025-12-20T03:13:18.516576",
        "meta_mean_motion": 2.13103685,
        "meta_eccentricity": 0.00033011,
        "meta_inclination": 64.904,
        "meta_ra_of_asc_node": 77.0852,
        "meta_arg_of_pericenter": 296.9564,
        "meta_mean_anomaly": 115.2996,
        "meta_ephemeris_type": 0,
        "meta_classification_type": "U",
        "meta_norad_cat_id": 36111,
        "meta_element_set_no": 999,
        "meta_rev_at_epoch": 12461,
        "meta_bstar": 0,
        "meta_mean_motion_dot": -2.2e-07,
        "meta_mean_motion_ddot": 0,
        "tle_line1": "1 36111U 09070A   25354.13424209 -.00000022  00000+0  00000+0 0  9995",
        "tle_line2": "2 36111  64.9040  77.0852 0003301 296.9564 115.2996  2.13103685124610"
      },
      "geometry": {
        "type": "Point",
        "coordinates": [
          -76.5463804525963,
          -43.569323902058166
        ]
      }
    },
    {
      "type": "Feature",
      "properties": {
        "norad_id": 36112,
        "name": "COSMOS 2457 (733)",
        "group": "glo-ops",
        "lat": -1.2961604953864463,
        "lon": 76.26802880029207,
        "alt_km": 19141.8003838414,
        "timestamp": "2025-12-22T05:49:03.760273+00:00",
        "meta_object_name": "COSMOS 2457 (733)",
        "meta_object_id": "2009-070B",
        "meta_epoch": "2025-12-21T18:40:54.669792",
        "meta_mean_motion": 2.13101119,
        "meta_eccentricity": 0.0004535,
        "meta_inclination": 64.8903,
        "meta_ra_of_asc_node": 76.8763,
        "meta_arg_of_pericenter": 162.469,
        "meta_mean_anomaly": 200.2019,
        "meta_ephemeris_type": 0,
        "meta_classification_type": "U",
        "meta_norad_cat_id": 36112,
        "meta_element_set_no": 999,
        "meta_rev_at_epoch": 12465,
        "meta_bstar": 0,
        "meta_mean_motion_dot": -8e-08,
        "meta_mean_motion_ddot": 0,
        "tle_line1": "1 36112U 09070B   25355.77841053 -.00000008  00000+0  00000+0 0  9991",
        "tle_line2": "2 36112  64.8903  76.8763 0004535 162.4690 200.2019  2.13101119124658"
      },
      "geometry": {
        "type": "Point",
        "coordinates": [
          76.26802880029207,
          -1.2961604953864463
        ]
      }
    },
    {
      "type": "Feature",
      "properties": {
        "norad_id": 36402,
        "name": "COSMOS 2460 (732)",
        "group": "glo-ops",
        "lat": -1.5549293898113663,
        "lon": -40.27293606512019,
        "alt_km": 19128.818307067468,
        "timestamp": "2025-12-22T05:49:03.760285+00:00",
        "meta_object_name": "COSMOS 2460 (732)",
        "meta_object_id": "2010-007C",
        "meta_epoch": "2025-12-21T10:11:10.908384",
        "meta_mean_motion": 2.13106318,
        "meta_eccentricity": 0.0002509,
        "meta_inclination": 65.525,
        "meta_ra_of_asc_node": 320.48,
        "meta_arg_of_pericenter": 281.7872,
        "meta_mean_anomaly": 168.9418,
        "meta_ephemeris_type": 0,
        "meta_classification_type": "U",
        "meta_norad_cat_id": 36402,
        "meta_element_set_no": 999,
        "meta_rev_at_epoch": 12294,
        "meta_bstar": 0,
        "meta_mean_motion_dot": -4.6e-07,
        "meta_mean_motion_ddot": 0,
        "tle_line1": "1 36402U 10007C   25355.42443181 -.00000046  00000+0  00000+0 0  9999",
        "tle_line2": "2 36402  65.5250 320.4800 0002509 281.7872 168.9418  2.13106318122948"
      },
      "geometry": {
        "type": "Point",
        "coordinates": [
          -40.27293606512019,
          -1.5549293898113663
        ]
      }
    }
  ]
}